[
  {
    "OBJECT_NAME": "STARLINK-35570",
    "OBJECT_ID": "25236E",
    "EPOCH": "2025-11-11T06:00:02.000160",
    "MEAN_MOTION": 15.64316545,
    "ECCENTRICITY": 0.0001182,
    "INCLINATION": 53.159,
    "RA_OF_ASC_NODE": 296.5396,
    "ARG_OF_PERICENTER": 68.3215,
    "MEAN_ANOMALY": 1.2914,
    "EPHEMERIS_TYPE": 0,
    "CLASSIFICATION_TYPE": "U",
    "NORAD_CAT_ID": 66090,
    "ELEMENT_SET_NO": 999,
    "REV_AT_EPOCH": 481,
    "BSTAR": 0.0,
    "MEAN_MOTION_DOT": -0.02022449,
    "MEAN_MOTION_DDOT": 0.0,
    "TLE_LINE1": "1 66090U 25236E   25315.25002315 -.02022449  00000+0 -23649-1 0  9992",
    "TLE_LINE2": "2 66090  53.1590 296.5396 0001182  68.3215   1.2914 15.64316545  4813",
    "COMMENT": "Grouped by shell and plane from TLE"
  },
  {
    "OBJECT_NAME": "STARLINK-35532",
    "OBJECT_ID": "25236F",
    "EPOCH": "2025-11-11T06:00:02.000160",
    "MEAN_MOTION": 15.64315908,
    "ECCENTRICITY": 0.0001239,
    "INCLINATION": 53.1591,
    "RA_OF_ASC_NODE": 296.5357,
    "ARG_OF_PERICENTER": 70.4081,
    "MEAN_ANOMALY": 1.1215,
    "EPHEMERIS_TYPE": 0,
    "CLASSIFICATION_TYPE": "U",
    "NORAD_CAT_ID": 66091,
    "ELEMENT_SET_NO": 999,
    "REV_AT_EPOCH": 481,
    "BSTAR": 0.0,
    "MEAN_MOTION_DOT": -0.02021381,
    "MEAN_MOTION_DDOT": 0.0,
    "TLE_LINE1": "1 66091U 25236F   25315.25002315 -.02021381  00000+0 -23635-1 0  9992",
    "TLE_LINE2": "2 66091  53.1591 296.5357 0001239  70.4081   1.1215 15.64315908  4815",
    "COMMENT": "Grouped by shell and plane from TLE"
  },
  {
    "OBJECT_NAME": "STARLINK-35527",
    "OBJECT_ID": "25236G",
    "EPOCH": "2025-11-11T06:00:02.000160",
    "MEAN_MOTION": 15.64315076,
    "ECCENTRICITY": 0.0001358,
    "INCLINATION": 53.1591,
    "RA_OF_ASC_NODE": 296.5299,
    "ARG_OF_PERICENTER": 80.0151,
    "MEAN_ANOMALY": 353.433,
    "EPHEMERIS_TYPE": 0,
    "CLASSIFICATION_TYPE": "U",
    "NORAD_CAT_ID": 66092,
    "ELEMENT_SET_NO": 999,
    "REV_AT_EPOCH": 481,
    "BSTAR": 0.0,
    "MEAN_MOTION_DOT": -0.02021626,
    "MEAN_MOTION_DDOT": 0.0,
    "TLE_LINE1": "1 66092U 25236G   25315.25002315 -.02021626  00000+0 -23638-1 0  9998",
    "TLE_LINE2": "2 66092  53.1591 296.5299 0001358  80.0151 353.4330 15.64315076  4815",
    "COMMENT": "Grouped by shell and plane from TLE"
  },
  {
    "OBJECT_NAME": "STARLINK-35500",
    "OBJECT_ID": "25236H",
    "EPOCH": "2025-11-11T06:00:02.000160",
    "MEAN_MOTION": 15.64315353,
    "ECCENTRICITY": 0.0001354,
    "INCLINATION": 53.1592,
    "RA_OF_ASC_NODE": 296.5261,
    "ARG_OF_PERICENTER": 79.556,
    "MEAN_ANOMALY": 355.8095,
    "EPHEMERIS_TYPE": 0,
    "CLASSIFICATION_TYPE": "U",
    "NORAD_CAT_ID": 66093,
    "ELEMENT_SET_NO": 999,
    "REV_AT_EPOCH": 481,
    "BSTAR": 0.0,
    "MEAN_MOTION_DOT": -0.02022696,
    "MEAN_MOTION_DDOT": 0.0,
    "TLE_LINE1": "1 66093U 25236H   25315.25002315 -.02022696  00000+0 -23652-1 0  9993",
    "TLE_LINE2": "2 66093  53.1592 296.5261 0001354  79.5560 355.8095 15.64315353  4811",
    "COMMENT": "Grouped by shell and plane from TLE"
  },
  {
    "OBJECT_NAME": "STARLINK-35528",
    "OBJECT_ID": "25236J",
    "EPOCH": "2025-11-11T06:00:02.000160",
    "MEAN_MOTION": 15.64324858,
    "ECCENTRICITY": 0.000131,
    "INCLINATION": 53.1592,
    "RA_OF_ASC_NODE": 296.5222,
    "ARG_OF_PERICENTER": 77.8586,
    "MEAN_ANOMALY": 359.4155,
    "EPHEMERIS_TYPE": 0,
    "CLASSIFICATION_TYPE": "U",
    "NORAD_CAT_ID": 66094,
    "ELEMENT_SET_NO": 999,
    "REV_AT_EPOCH": 481,
    "BSTAR": 0.0,
    "MEAN_MOTION_DOT": -0.02030449,
    "MEAN_MOTION_DDOT": 0.0,
    "TLE_LINE1": "1 66094U 25236J   25315.25002315 -.02030449  00000+0 -23747-1 0  9994",
    "TLE_LINE2": "2 66094  53.1592 296.5222 0001310  77.8586 359.4155 15.64324858  4817",
    "COMMENT": "Grouped by shell and plane from TLE"
  },
  {
    "OBJECT_NAME": "STARLINK-35559",
    "OBJECT_ID": "25236K",
    "EPOCH": "2025-11-11T06:00:02.000160",
    "MEAN_MOTION": 15.64316412,
    "ECCENTRICITY": 0.0001389,
    "INCLINATION": 53.1592,
    "RA_OF_ASC_NODE": 296.5186,
    "ARG_OF_PERICENTER": 76.1005,
    "MEAN_ANOMALY": 3.0981,
    "EPHEMERIS_TYPE": 0,
    "CLASSIFICATION_TYPE": "U",
    "NORAD_CAT_ID": 66095,
    "ELEMENT_SET_NO": 999,
    "REV_AT_EPOCH": 481,
    "BSTAR": 0.0,
    "MEAN_MOTION_DOT": -0.02023792,
    "MEAN_MOTION_DDOT": 0.0,
    "TLE_LINE1": "1 66095U 25236K   25315.25002315 -.02023792  00000+0 -23665-1 0  9997",
    "TLE_LINE2": "2 66095  53.1592 296.5186 0001389  76.1005   3.0981 15.64316412  4817",
    "COMMENT": "Grouped by shell and plane from TLE"
  },
  {
    "OBJECT_NAME": "STARLINK-34386",
    "OBJECT_ID": "25236L",
    "EPOCH": "2025-11-11T06:00:02.000160",
    "MEAN_MOTION": 15.64314916,
    "ECCENTRICITY": 0.0001207,
    "INCLINATION": 53.1592,
    "RA_OF_ASC_NODE": 296.5144,
    "ARG_OF_PERICENTER": 77.879,
    "MEAN_ANOMALY": 3.2369,
    "EPHEMERIS_TYPE": 0,
    "CLASSIFICATION_TYPE": "U",
    "NORAD_CAT_ID": 66096,
    "ELEMENT_SET_NO": 999,
    "REV_AT_EPOCH": 481,
    "BSTAR": 0.0,
    "MEAN_MOTION_DOT": -0.02021192,
    "MEAN_MOTION_DDOT": 0.0,
    "TLE_LINE1": "1 66096U 25236L   25315.25002315 -.02021192  00000+0 -23634-1 0  9996",
    "TLE_LINE2": "2 66096  53.1592 296.5144 0001207  77.8790   3.2369 15.64314916  4819",
    "COMMENT": "Grouped by shell and plane from TLE"
  },
  {
    "OBJECT_NAME": "STARLINK-35613",
    "OBJECT_ID": "25236M",
    "EPOCH": "2025-11-11T06:00:02.000160",
    "MEAN_MOTION": 15.64315679,
    "ECCENTRICITY": 0.0001406,
    "INCLINATION": 53.1592,
    "RA_OF_ASC_NODE": 296.5061,
    "ARG_OF_PERICENTER": 78.5984,
    "MEAN_ANOMALY": 6.3497,
    "EPHEMERIS_TYPE": 0,
    "CLASSIFICATION_TYPE": "U",
    "NORAD_CAT_ID": 66097,
    "ELEMENT_SET_NO": 999,
    "REV_AT_EPOCH": 481,
    "BSTAR": 0.0,
    "MEAN_MOTION_DOT": -0.02021305,
    "MEAN_MOTION_DDOT": 0.0,
    "TLE_LINE1": "1 66097U 25236M   25315.25002315 -.02021305  00000+0 -23632-1 0  9991",
    "TLE_LINE2": "2 66097  53.1592 296.5061 0001406  78.5984   6.3497 15.64315679  4815",
    "COMMENT": "Grouped by shell and plane from TLE"
  },
  {
    "OBJECT_NAME": "STARLINK-34206",
    "OBJECT_ID": "25236N",
    "EPOCH": "2025-11-11T06:00:02.000160",
    "MEAN_MOTION": 15.64317934,
    "ECCENTRICITY": 0.0001361,
    "INCLINATION": 53.1592,
    "RA_OF_ASC_NODE": 296.5022,
    "ARG_OF_PERICENTER": 77.1236,
    "MEAN_ANOMALY": 9.7432,
    "EPHEMERIS_TYPE": 0,
    "CLASSIFICATION_TYPE": "U",
    "NORAD_CAT_ID": 66098,
    "ELEMENT_SET_NO": 999,
    "REV_AT_EPOCH": 480,
    "BSTAR": 0.0,
    "MEAN_MOTION_DOT": -0.02026621,
    "MEAN_MOTION_DDOT": 0.0,
    "TLE_LINE1": "1 66098U 25236N   25315.25002315 -.02026621  00000+0 -23702-1 0  9996",
    "TLE_LINE2": "2 66098  53.1592 296.5022 0001361  77.1236   9.7432 15.64317934  4809",
    "COMMENT": "Grouped by shell and plane from TLE"
  },
  {
    "OBJECT_NAME": "STARLINK-34460",
    "OBJECT_ID": "25236P",
    "EPOCH": "2025-11-11T06:00:02.000160",
    "MEAN_MOTION": 15.64316437,
    "ECCENTRICITY": 0.0001284,
    "INCLINATION": 53.1592,
    "RA_OF_ASC_NODE": 296.5107,
    "ARG_OF_PERICENTER": 73.951,
    "MEAN_ANOMALY": 9.0812,
    "EPHEMERIS_TYPE": 0,
    "CLASSIFICATION_TYPE": "U",
    "NORAD_CAT_ID": 66099,
    "ELEMENT_SET_NO": 999,
    "REV_AT_EPOCH": 481,
    "BSTAR": 0.0,
    "MEAN_MOTION_DOT": -0.02023495,
    "MEAN_MOTION_DDOT": 0.0,
    "TLE_LINE1": "1 66099U 25236P   25315.25002315 -.02023495  00000+0 -23662-1 0  9998",
    "TLE_LINE2": "2 66099  53.1592 296.5107 0001284  73.9510   9.0812 15.64316437  4810",
    "COMMENT": "Grouped by shell and plane from TLE"
  },
  {
    "OBJECT_NAME": "STARLINK-35609",
    "OBJECT_ID": "25236Q",
    "EPOCH": "2025-11-11T06:00:02.000160",
    "MEAN_MOTION": 15.6431569,
    "ECCENTRICITY": 0.0001398,
    "INCLINATION": 53.1592,
    "RA_OF_ASC_NODE": 296.4981,
    "ARG_OF_PERICENTER": 74.2463,
    "MEAN_ANOMALY": 14.5355,
    "EPHEMERIS_TYPE": 0,
    "CLASSIFICATION_TYPE": "U",
    "NORAD_CAT_ID": 66100,
    "ELEMENT_SET_NO": 999,
    "REV_AT_EPOCH": 475,
    "BSTAR": 0.0,
    "MEAN_MOTION_DOT": -0.02021303,
    "MEAN_MOTION_DDOT": 0.0,
    "TLE_LINE1": "1 66100U 25236Q   25315.25002315 -.02021303  00000+0 -23632-1 0  9994",
    "TLE_LINE2": "2 66100  53.1592 296.4981 0001398  74.2463  14.5355 15.64315690  4755",
    "COMMENT": "Grouped by shell and plane from TLE"
  },
  {
    "OBJECT_NAME": "STARLINK-35595",
    "OBJECT_ID": "25236R",
    "EPOCH": "2025-11-11T06:00:02.000160",
    "MEAN_MOTION": 15.64318698,
    "ECCENTRICITY": 0.0001354,
    "INCLINATION": 53.1592,
    "RA_OF_ASC_NODE": 296.4936,
    "ARG_OF_PERICENTER": 77.2432,
    "MEAN_ANOMALY": 13.4569,
    "EPHEMERIS_TYPE": 0,
    "CLASSIFICATION_TYPE": "U",
    "NORAD_CAT_ID": 66101,
    "ELEMENT_SET_NO": 999,
    "REV_AT_EPOCH": 475,
    "BSTAR": 0.0,
    "MEAN_MOTION_DOT": -0.02027436,
    "MEAN_MOTION_DDOT": 0.0,
    "TLE_LINE1": "1 66101U 25236R   25315.25002315 -.02027436  00000+0 -23712-1 0  9997",
    "TLE_LINE2": "2 66101  53.1592 296.4936 0001354  77.2432  13.4569 15.64318698  4753",
    "COMMENT": "Grouped by shell and plane from TLE"
  },
  {
    "OBJECT_NAME": "STARLINK-35599",
    "OBJECT_ID": "25236S",
    "EPOCH": "2025-11-11T06:00:02.000160",
    "MEAN_MOTION": 15.6431935,
    "ECCENTRICITY": 0.0001456,
    "INCLINATION": 53.1592,
    "RA_OF_ASC_NODE": 296.4906,
    "ARG_OF_PERICENTER": 76.3134,
    "MEAN_ANOMALY": 16.301,
    "EPHEMERIS_TYPE": 0,
    "CLASSIFICATION_TYPE": "U",
    "NORAD_CAT_ID": 66102,
    "ELEMENT_SET_NO": 999,
    "REV_AT_EPOCH": 475,
    "BSTAR": 0.0,
    "MEAN_MOTION_DOT": -0.02026821,
    "MEAN_MOTION_DDOT": 0.0,
    "TLE_LINE1": "1 66102U 25236S   25315.25002315 -.02026821  00000+0 -23702-1 0  9994",
    "TLE_LINE2": "2 66102  53.1592 296.4906 0001456  76.3134  16.3010 15.64319350  4752",
    "COMMENT": "Grouped by shell and plane from TLE"
  }
]